{"fetched_at":"2026-07-15T06:36:00.120Z","source":"https://celestrak.org/NORAD/elements/gp.php?NAME=FIREFLY&FORMAT=JSON","constellation":"pixxel","records":[{"OBJECT_NAME":"FIREFLY-1","OBJECT_ID":"2025-009CW","EPOCH":"2026-07-14T21:53:19.652928","CLASSIFICATION_TYPE":"U","MEAN_MOTION":14.92741003,"ECCENTRICITY":0.00025718,"INCLINATION":97.7061,"RA_OF_ASC_NODE":273.4668,"ARG_OF_PERICENTER":224.7128,"MEAN_ANOMALY":135.3885,"EPHEMERIS_TYPE":0,"NORAD_CAT_ID":62701,"ELEMENT_SET_NO":999,"REV_AT_EPOCH":8145,"BSTAR":0.000068283936,"MEAN_MOTION_DOT":0.0000065,"MEAN_MOTION_DDOT":0},{"OBJECT_NAME":"FIREFLY-2","OBJECT_ID":"2025-009CZ","EPOCH":"2026-07-14T19:44:59.083584","CLASSIFICATION_TYPE":"U","MEAN_MOTION":14.92734939,"ECCENTRICITY":0.00064218,"INCLINATION":97.7019,"RA_OF_ASC_NODE":273.1495,"ARG_OF_PERICENTER":4.3631,"MEAN_ANOMALY":355.7643,"EPHEMERIS_TYPE":0,"NORAD_CAT_ID":62704,"ELEMENT_SET_NO":999,"REV_AT_EPOCH":8144,"BSTAR":0.000079094778,"MEAN_MOTION_DOT":0.00000761,"MEAN_MOTION_DDOT":0},{"OBJECT_NAME":"FIREFLY-3","OBJECT_ID":"2025-009DF","EPOCH":"2026-07-14T22:26:32.185536","CLASSIFICATION_TYPE":"U","MEAN_MOTION":14.92799774,"ECCENTRICITY":0.00047672,"INCLINATION":97.7052,"RA_OF_ASC_NODE":273.5192,"ARG_OF_PERICENTER":73.9368,"MEAN_ANOMALY":286.2376,"EPHEMERIS_TYPE":0,"NORAD_CAT_ID":62710,"ELEMENT_SET_NO":999,"REV_AT_EPOCH":8147,"BSTAR":0.000039853557,"MEAN_MOTION_DOT":0.00000357,"MEAN_MOTION_DDOT":0}]}
