FIREFLY-1               
1 62701U 25009CW  26195.91203302  .00000650  00000+0  68284-4 0  9997
2 62701  97.7061 273.4668 0002571 224.7128 135.3885 14.92741003 81457
FIREFLY-2               
1 62704U 25009CZ  26195.82290606  .00000761  00000+0  79095-4 0  9998
2 62704  97.7019 273.1495 0006421   4.3631 355.7643 14.92734939 81446
FIREFLY-3               
1 62710U 25009DF  26195.93509474  .00000357  00000+0  39854-4 0  9993
2 62710  97.7052 273.5192 0004767  73.9368 286.2376 14.92799774 81470
